NORAD_CAT_ID,OBJECT_NAME,OBJECT_TYPE,EPOCH,MEAN_MOTION,ECCENTRICITY,INCLINATION,RA_OF_ASC_NODE,ARG_OF_PERICENTER,MEAN_ANOMALY,BSTAR,MEAN_MOTION_DOT,MEAN_MOTION_DDOT,TLE_LINE0,TLE_LINE1,TLE_LINE2,SEMIMAJOR_AXIS,PERIOD,APOGEE,PERIGEE,DECAYED
53750.0,STARLINK-4612,PAYLOAD,2023-02-13 14:16:17,15.08840474,0.0001116,53.2151,252.6696,73.9024,286.2091,-8.24e-07,-3.01e-06,0.0,0 STARLINK-4612,1 53750U 22107BC  23044.59464934 -.00000301  00000-0 -82400-6 0  9995,2 53750  53.2151 252.6696 0001116  73.9024 286.2091 15.08840474 25500,6917.879,95.438,540.516,538.972,0.0
53750.0,STARLINK-4612,PAYLOAD,2023-02-13 20:37:50,15.08844203,0.0001184,53.216,251.4789,76.0238,284.0885,0.00012318,1.673e-05,0.0,0 STARLINK-4612,1 53750U 22107BC  23044.85960649  .00001673  00000-0  12318-3 0  9997,2 53750  53.2160 251.4789 0001184  76.0238 284.0885 15.08844203 24753,6917.868,95.437,540.552,538.913,0.0
53750.0,STARLINK-4612,PAYLOAD,2023-02-14 14:07:04,15.08837351,0.0001171,53.2149,248.2087,80.5362,279.5763,0.0001253,1.707e-05,0.0,0 STARLINK-4612,1 53750U 22107BC  23045.58825060  .00001707  00000-0  12530-3 0  9999,2 53750  53.2149 248.2087 0001171  80.5362 279.5763 15.08837351 25659,6917.888,95.438,540.564,538.943,0.0
53750.0,STARLINK-4612,PAYLOAD,2023-02-15 12:22:28,15.08841733,0.0001202,53.2151,244.0467,88.6242,271.4888,2.3744e-05,9e-07,0.0,0 STARLINK-4612,1 53750U 22107BC  23046.51560803  .00000090  00000-0  23744-4 0  9998,2 53750  53.2151 244.0467 0001202  88.6242 271.4888 15.08841733 25792,6917.875,95.437,540.572,538.909,0.0
53750.0,STARLINK-4612,PAYLOAD,2023-02-15 21:54:46,15.08853516,0.0001231,53.2143,242.2621,89.0601,271.0532,0.00020544,2.984e-05,0.0,0 STARLINK-4612,1 53750U 22107BC  23046.91304165  .00002984  00000-0  20544-3 0  9997,2 53750  53.2143 242.2621 0001231  89.0601 271.0532 15.08853516 25065,6917.839,95.437,540.556,538.852,0.0
53750.0,STARLINK-4612,PAYLOAD,2023-02-16 05:51:42,15.08844979,0.0001247,53.2143,240.7742,80.4146,279.6987,0.00013572,1.873e-05,0.0,0 STARLINK-4612,1 53750U 22107BC  23047.24424434  .00001873  00000-0  13572-3 0  9995,2 53750  53.2143 240.7742 0001247  80.4146 279.6987 15.08844979 25115,6917.865,95.437,540.593,538.868,0.0
53750.0,STARLINK-4612,PAYLOAD,2023-02-16 13:48:38,15.08833654,0.0001198,53.2143,239.2878,80.5539,279.5588,-1.8771e-05,-5.87e-06,0.0,0 STARLINK-4612,1 53750U 22107BC  23047.57545086 -.00000587  00000-0 -18771-4 0  9998,2 53750  53.2143 239.2878 0001198  80.5539 279.5588 15.08833654 25169,6917.9,95.438,540.594,538.936,0.0
53750.0,STARLINK-4612,PAYLOAD,2023-02-16 21:45:34,15.088421,0.0001395,53.2144,237.8004,77.8404,282.2744,5.1898e-05,5.38e-06,0.0,0 STARLINK-4612,1 53750U 22107BC  23047.90664721  .00000538  00000-0  51898-4 0  9994,2 53750  53.2144 237.8004 0001395  77.8404 282.2744 15.08842100 26009,6917.874,95.437,540.704,538.774,0.0
53750.0,STARLINK-4612,PAYLOAD,2023-02-17 12:04:02,15.08835964,0.0001191,53.2147,235.1244,80.1442,279.9685,4.8517e-05,4.84e-06,0.0,0 STARLINK-4612,1 53750U 22107BC  23048.50281093  .00000484  00000-0  48517-4 0  9992,2 53750  53.2147 235.1244 0001191  80.1442 279.9685 15.08835964 26098,6917.893,95.438,540.582,538.934,0.0
53750.0,STARLINK-4612,PAYLOAD,2023-02-17 18:25:35,15.08841552,0.0001154,53.215,233.9351,80.3533,279.7589,0.00013276,1.826e-05,0.0,0 STARLINK-4612,1 53750U 22107BC  23048.76776904  .00001826  00000-0  13276-3 0  9994,2 53750  53.2150 233.9351 0001154  80.3533 279.7589 15.08841552 25347,6917.876,95.437,540.539,538.942,0.0
53750.0,STARLINK-4612,PAYLOAD,2023-02-18 11:54:50,15.08827555,0.000118,53.2149,230.6637,83.1592,276.9535,0.0003637,5.503e-05,0.0,0 STARLINK-4612,1 53750U 22107BC  23049.49641828  .00005503  00000-0  36370-3 0  9997,2 53750  53.2149 230.6637 0001180  83.1592 276.9535 15.08827555 25450,6917.918,95.438,540.6,538.967,0.0
53750.0,STARLINK-4612,PAYLOAD,2023-02-18 13:30:13,15.08829522,0.0001223,53.215,230.3664,81.6376,278.4754,0.0002843,4.238e-05,0.0,0 STARLINK-4612,1 53750U 22107BC  23049.56265715  .00004238  00000-0  28430-3 0  9994,2 53750  53.2150 230.3664 0001223  81.6376 278.4754 15.08829522 26255,6917.912,95.438,540.623,538.931,0.0
53750.0,STARLINK-4612,PAYLOAD,2023-02-19 05:24:04,15.08840155,0.0001137,53.2164,227.3927,85.9498,274.1624,0.00014414,2.007e-05,0.0,0 STARLINK-4612,1 53750U 22107BC  23050.22505029  .00002007  00000-0  14414-3 0  9993,2 53750  53.2164 227.3927 0001137  85.9498 274.1624 15.08840155 25561,6917.88,95.438,540.531,538.958,0.0
53750.0,STARLINK-4612,PAYLOAD,2023-02-19 14:56:23,15.08839759,0.0001152,53.2163,225.6085,87.4642,272.6482,0.00012396,1.686e-05,0.0,0 STARLINK-4612,1 53750U 22107BC  23050.62249121  .00001686  00000-0  12396-3 0  9994,2 53750  53.2163 225.6085 0001152  87.4642 272.6482 15.08839759 26419,6917.881,95.438,540.543,538.949,0.0
53750.0,STARLINK-4612,PAYLOAD,2023-02-20 11:36:24,15.08837606,0.0001145,53.2163,221.743,85.3268,274.7855,0.00010961,1.457e-05,0.0,0 STARLINK-4612,1 53750U 22107BC  23051.48361341  .00001457  00000-0  10961-3 0  9990,2 53750  53.2163 221.7430 0001145  85.3268 274.7855 15.08837606 25755,6917.888,95.438,540.545,538.961,0.0
53750.0,STARLINK-4612,PAYLOAD,2023-02-21 14:37:57,15.08841213,0.0001092,53.2163,216.6876,89.5288,270.5829,6.9721e-05,8.22e-06,0.0,0 STARLINK-4612,1 53750U 22107BC  23052.60969084  .00000822  00000-0  69721-4 0  9997,2 53750  53.2163 216.6876 0001092  89.5288 270.5829 15.08841213 25924,6917.877,95.437,540.497,538.986,0.0
53750.0,STARLINK-4612,PAYLOAD,2023-02-21 17:48:43,15.08845931,0.0001097,53.2162,216.0928,89.4623,270.6495,0.00010687,1.414e-05,0.0,0 STARLINK-4612,1 53750U 22107BC  23052.74216662  .00001414  00000-0  10687-3 0  9993,2 53750  53.2162 216.0928 0001097  89.4623 270.6495 15.08845931 26733,6917.862,95.437,540.486,538.968,0.0
53750.0,STARLINK-4612,PAYLOAD,2023-02-22 12:53:21,15.08826603,0.0001146,53.2162,212.5251,92.4231,267.6893,7.407e-05,8.91e-06,0.0,0 STARLINK-4612,1 53750U 22107BC  23053.53705919  .00000891  00000-0  74070-4 0  9994,2 53750  53.2162 212.5251 0001146  92.4231 267.6893 15.08826603 26853,6917.921,95.438,540.579,538.994,0.0
53750.0,STARLINK-4612,PAYLOAD,2023-02-22 19:14:53,15.08839485,0.0001141,53.216,211.3353,84.9939,275.1183,6.2409e-05,7.06e-06,0.0,0 STARLINK-4612,1 53750U 22107BC  23053.80201232  .00000706  00000-0  62409-4 0  9991,2 53750  53.2160 211.3353 0001141  84.9939 275.1183 15.08839485 26103,6917.882,95.438,540.536,538.958,0.0
53750.0,STARLINK-4612,PAYLOAD,2023-02-23 12:44:08,15.08836837,0.000125,53.216,208.0643,82.9239,277.1896,-1.1927e-05,-4.78e-06,0.0,0 STARLINK-4612,1 53750U 22107BC  23054.53065843 -.00000478  00000-0 -11927-4 0  9995,2 53750  53.2160 208.0643 0001250  82.9239 277.1896 15.08836837 26213,6917.89,95.438,540.62,538.89,0.0
53750.0,STARLINK-4612,PAYLOAD,2023-02-23 19:05:40,15.08847645,0.0001137,53.2162,206.8743,81.6414,278.4707,6.6634e-05,7.73e-06,0.0,0 STARLINK-4612,1 53750U 22107BC  23054.79560880  .00000773  00000-0  66634-4 0  9995,2 53750  53.2162 206.8743 0001137  81.6414 278.4707 15.08847645 26255,6917.857,95.437,540.509,538.935,0.0
53750.0,STARLINK-4612,PAYLOAD,2023-02-24 03:02:36,15.08838478,0.0001156,53.2165,205.3863,86.4281,273.6843,3.886e-06,-2.26e-06,0.0,0 STARLINK-4612,1 53750U 22107BC  23055.12681699 -.00000226  00000-0  38860-5 0  9990,2 53750  53.2165 205.3863 0001156  86.4281 273.6843 15.08838478 26309,6917.885,95.438,540.55,538.95,0.0
53750.0,STARLINK-4612,PAYLOAD,2023-02-24 12:34:56,15.08831581,0.000131,53.216,203.6039,87.3191,272.7951,6.7184e-05,7.81e-06,0.0,0 STARLINK-4612,1 53750U 22107BC  23055.52426047  .00000781  00000-0  67184-4 0  9993,2 53750  53.2160 203.6039 0001310  87.3191 272.7951 15.08831581 27154,6917.906,95.438,540.677,538.865,0.0
53750.0,STARLINK-4612,PAYLOAD,2023-02-24 17:21:05,15.08837339,0.000122,53.2162,202.7118,84.2425,275.8706,8.7197e-05,1.1e-05,0.0,0 STARLINK-4612,1 53750U 22107BC  23055.72297703  .00001100  00000-0  87197-4 0  9992,2 53750  53.2162 202.7118 0001220  84.2425 275.8706 15.08837339 27182,6917.889,95.438,540.598,538.91,0.0
53750.0,STARLINK-4612,PAYLOAD,2023-02-25 12:25:43,15.08836008,0.000119,53.2164,199.1436,82.5784,277.5344,-3.3994e-05,-8.29e-06,0.0,0 STARLINK-4612,1 53750U 22107BC  23056.51786521 -.00000829  00000-0 -33994-4 0  9996,2 53750  53.2164 199.1436 0001190  82.5784 277.5344 15.08836008 26516,6917.893,95.438,540.581,538.934,0.0
53750.0,STARLINK-4612,PAYLOAD,2023-02-25 17:11:52,15.08839,0.0001183,53.2164,198.2514,83.6111,276.5015,5.7431e-06,-1.96e-06,0.0,0 STARLINK-4612,1 53750U 22107BC  23056.71658228 -.00000196  00000-0  57431-5 0  9999,2 53750  53.2164 198.2514 0001183  83.6111 276.5015 15.08839000 27331,6917.883,95.438,540.567,538.93,0.0
53750.0,STARLINK-4612,PAYLOAD,2023-02-26 02:44:10,15.08847461,0.0001161,53.217,196.4664,85.0322,275.0803,4.9287e-05,4.97e-06,0.0,0 STARLINK-4612,1 53750U 22107BC  23057.11401481  .00000497  00000-0  49287-4 0  9993,2 53750  53.2170 196.4664 0001161  85.0322 275.0803 15.08847461 26608,6917.858,95.437,540.526,538.919,0.0
53750.0,STARLINK-4612,PAYLOAD,2023-02-26 12:16:29,15.08847745,0.0001158,53.2162,194.6842,82.9138,277.1985,0.00017822,2.55e-05,0.0,0 STARLINK-4612,1 53750U 22107BC  23057.51145207  .00002550  00000-0  17822-3 0  9999,2 53750  53.2162 194.6842 0001158  82.9138 277.1985 15.08847745 27457,6917.857,95.437,540.523,538.921,0.0
53750.0,STARLINK-4612,PAYLOAD,2023-02-26 15:27:15,15.08854665,0.0001093,53.2162,194.0896,82.6968,277.4148,0.00022676,3.324e-05,0.0,0 STARLINK-4612,1 53750U 22107BC  23057.64392699  .00003324  00000-0  22676-3 0  9995,2 53750  53.2162 194.0896 0001093  82.6968 277.4148 15.08854665 26683,6917.836,95.437,540.457,538.944,0.0
53750.0,STARLINK-4612,PAYLOAD,2023-02-27 02:34:57,15.08852302,0.0001239,53.2172,192.0103,61.7238,298.3879,0.00017989,2.577e-05,0.0,0 STARLINK-4612,1 53750U 22107BC  23058.10760736  .00002577  00000-0  17989-3 0  9998,2 53750  53.2172 192.0103 0001239  61.7238 298.3879 15.08852302 26750,6917.843,95.437,540.565,538.851,0.0
